NORAD_CAT_ID,OBJECT_NAME,OBJECT_TYPE,EPOCH,MEAN_MOTION,ECCENTRICITY,INCLINATION,RA_OF_ASC_NODE,ARG_OF_PERICENTER,MEAN_ANOMALY,BSTAR,MEAN_MOTION_DOT,MEAN_MOTION_DDOT,TLE_LINE0,TLE_LINE1,TLE_LINE2,SEMIMAJOR_AXIS,PERIOD,APOGEE,PERIGEE,DECAYED
55945.0,STARLINK-5925,PAYLOAD,2024-03-24 23:12:45,14.98281782,0.0002682,69.9977,286.4427,272.0143,88.0709,-0.00034809,-4.239e-05,0.0,0 STARLINK-5925,1 55945U 23037AH  24084.96719088 -.00004239  00000-0 -34809-3 0  9996,2 55945  69.9977 286.4427 0002682 272.0143  88.0709 14.98281782 57269,6950.342,96.11,574.071,570.343,0.0
55945.0,STARLINK-5925,PAYLOAD,2024-03-25 13:37:53,14.98361043,0.0001282,69.9972,284.9277,307.6311,52.4731,0.00054215,6.387e-05,0.0,0 STARLINK-5925,1 55945U 23037AH  24085.56797864  .00006387  00000-0  54215-3 0  9998,2 55945  69.9972 284.9277 0001282 307.6311  52.4731 14.98361043 57356,6950.097,96.105,572.853,571.071,0.0
55945.0,STARLINK-5925,PAYLOAD,2024-03-25 21:38:30,14.98386336,0.0003425,69.9974,284.0864,278.2759,81.8012,0.00074762,8.852e-05,0.0,0 STARLINK-5925,1 55945U 23037AH  24085.90174570  .00008852  00000-0  74762-3 0  9997,2 55945  69.9974 284.0864 0003425 278.2759  81.8012 14.98386336 57407,6950.019,96.103,574.264,569.503,0.0
55945.0,STARLINK-5925,PAYLOAD,2024-03-26 13:39:59,14.98294708,0.0003279,69.998,282.4013,274.8562,85.2223,-0.00067339,-8.111e-05,0.0,0 STARLINK-5925,1 55945U 23037AH  24086.56943297 -.00008111  00000-0 -67339-3 0  9992,2 55945  69.9980 282.4013 0003279 274.8562  85.2223 14.98294708 57507,6950.302,96.109,574.446,569.888,0.0
55945.0,STARLINK-5925,PAYLOAD,2024-03-26 15:16:07,14.98283965,0.0003238,69.9971,282.2343,278.0658,82.0134,-0.00074165,-8.921e-05,0.0,0 STARLINK-5925,1 55945U 23037AH  24086.63620239 -.00008921  00000-0 -74165-3 0  9992,2 55945  69.9971 282.2343 0003238 278.0658  82.0134 14.98283965 57170,6950.335,96.11,574.451,569.95,0.0
55945.0,STARLINK-5925,PAYLOAD,2024-03-26 21:40:38,14.98318702,0.000318,69.9994,281.5597,284.1211,75.9594,-0.00071746,-8.641e-05,0.0,0 STARLINK-5925,1 55945U 23037AH  24086.90322761 -.00008641  00000-0 -71746-3 0  9992,2 55945  69.9994 281.5597 0003180 284.1211  75.9594 14.98318702 57211,6950.228,96.108,574.303,569.883,0.0
55945.0,STARLINK-5925,PAYLOAD,2024-03-26 23:16:45,14.98343333,0.0003315,69.9976,281.3931,274.9899,85.0881,-0.00048411,-5.867e-05,0.0,0 STARLINK-5925,1 55945U 23037AH  24086.96996567 -.00005867  00000-0 -48411-3 0  9999,2 55945  69.9976 281.3931 0003315 274.9899  85.0881 14.98343333 57567,6950.152,96.106,574.321,569.713,0.0
55945.0,STARLINK-5925,PAYLOAD,2024-03-27 13:41:58,14.98309976,0.0003264,69.9971,279.8786,275.7345,84.3441,0.00013139,1.474e-05,0.0,0 STARLINK-5925,1 55945U 23037AH  24087.57082008  .00001474  00000-0  13139-3 0  9990,2 55945  69.9971 279.8786 0003264 275.7345  84.3441 14.98309976 57659,6950.255,96.108,574.388,569.851,0.0
55945.0,STARLINK-5925,PAYLOAD,2024-03-27 20:06:30,14.98358471,0.0003193,69.9983,279.2053,273.9885,86.0909,-0.00056706,-6.858e-05,0.0,0 STARLINK-5925,1 55945U 23037AH  24087.83784778 -.00006858  00000-0 -56706-3 0  9992,2 55945  69.9983 279.2053 0003193 273.9885  86.0909 14.98358471 57699,6950.105,96.105,574.189,569.751,0.0
55945.0,STARLINK-5925,PAYLOAD,2024-03-27 21:42:37,14.98358874,0.000322,69.9984,279.0373,275.9688,84.1104,-0.00054258,-6.566e-05,0.0,0 STARLINK-5925,1 55945U 23037AH  24087.90460606 -.00006566  00000-0 -54258-3 0  9997,2 55945  69.9984 279.0373 0003220 275.9688  84.1104 14.98358874 57364,6950.104,96.105,574.207,569.731,0.0
55945.0,STARLINK-5925,PAYLOAD,2024-03-28 12:07:50,14.98294218,0.0003148,69.998,277.5223,271.2656,88.8142,0.00059419,6.997e-05,0.0,0 STARLINK-5925,1 55945U 23037AH  24088.50544981  .00006997  00000-0  59419-3 0  9993,2 55945  69.9980 277.5223 0003148 271.2656  88.8142 14.98294218 57791,6950.304,96.109,574.357,569.981,0.0
55945.0,STARLINK-5925,PAYLOAD,2024-03-28 21:44:39,14.9830387,0.0003085,69.9981,276.5125,270.5567,89.5238,0.00061187,7.21e-05,0.0,0 STARLINK-5925,1 55945U 23037AH  24088.90601054  .00007210  00000-0  61187-3 0  9996,2 55945  69.9981 276.5125 0003085 270.5567  89.5238 14.98303870 57514,6950.274,96.109,574.283,569.995,0.0
55945.0,STARLINK-5925,PAYLOAD,2024-03-28 23:20:47,14.98306264,0.0002999,69.9983,276.3441,271.2658,88.8157,0.00061821,7.287e-05,0.0,0 STARLINK-5925,1 55945U 23037AH  24088.97276980  .00007287  00000-0  61821-3 0  9998,2 55945  69.9983 276.3441 0002999 271.2658  88.8157 14.98306264 57867,6950.266,96.109,574.216,570.047,0.0
55945.0,STARLINK-5925,PAYLOAD,2024-03-29 18:34:23,14.9834025,0.0002953,69.9987,274.324,267.5308,92.5513,0.00011831,1.319e-05,0.0,0 STARLINK-5925,1 55945U 23037AH  24089.77388073  .00001319  00000-0  11831-3 0  9990,2 55945  69.9987 274.3240 0002953 267.5308  92.5513 14.98340250 57980,6950.161,96.106,574.079,569.974,0.0
55945.0,STARLINK-5925,PAYLOAD,2024-03-29 21:46:39,14.98342332,0.0002914,69.9987,273.9873,267.649,92.4335,0.00013811,1.556e-05,0.0,0 STARLINK-5925,1 55945U 23037AH  24089.90739796  .00001556  00000-0  13811-3 0  9990,2 55945  69.9987 273.9873 0002914 267.6490  92.4335 14.98342332 57666,6950.155,96.106,574.045,569.994,0.0
55945.0,STARLINK-5925,PAYLOAD,2024-03-30 12:11:52,14.98334278,0.0002872,69.9941,272.4706,268.1505,91.9325,-2.3203e-05,-3.7e-06,0.0,0 STARLINK-5925,1 55945U 23037AH  24090.50824351 -.00000370  00000-0 -23203-4 0  9992,2 55945  69.9941 272.4706 0002872 268.1505  91.9325 14.98334278 58092,6950.18,96.107,574.041,570.049,0.0
55945.0,STARLINK-5925,PAYLOAD,2024-03-30 13:48:00,14.98332822,0.0002944,69.9961,272.3022,268.0923,91.9899,-1.3451e-05,-2.54e-06,0.0,0 STARLINK-5925,1 55945U 23037AH  24090.57500365 -.00000254  00000-0 -13451-4 0  9990,2 55945  69.9961 272.3022 0002944 268.0923  91.9899 14.98332822 57769,6950.184,96.107,574.095,570.003,0.0
55945.0,STARLINK-5925,PAYLOAD,2024-03-30 21:48:40,14.98332945,0.0002881,69.9982,271.462,269.7355,90.3474,-7.1484e-05,-9.46e-06,0.0,0 STARLINK-5925,1 55945U 23037AH  24090.90880441 -.00000946  00000-0 -71484-4 0  9991,2 55945  69.9982 271.4620 0002881 269.7355  90.3474 14.98332945 57817,6950.184,96.107,574.051,570.046,0.0
55945.0,STARLINK-5925,PAYLOAD,2024-03-31 12:13:52,14.98338232,0.0002864,69.9983,269.9469,271.7694,88.3137,-2.0139e-05,-3.33e-06,0.0,0 STARLINK-5925,1 55945U 23037AH  24091.50963598 -.00000333  00000-0 -20139-4 0  9994,2 55945  69.9983 269.9469 0002864 271.7694  88.3137 14.98338232 58247,6950.167,96.106,574.023,570.042,0.0
55945.0,STARLINK-5925,PAYLOAD,2024-03-31 13:50:00,14.98338441,0.0002868,69.9985,269.7786,271.7868,88.2962,-1.6753e-05,-2.93e-06,0.0,0 STARLINK-5925,1 55945U 23037AH  24091.57639536 -.00000293  00000-0 -16753-4 0  9995,2 55945  69.9985 269.7786 0002868 271.7868  88.2962 14.98338441 57916,6950.167,96.106,574.025,570.038,0.0
55945.0,STARLINK-5925,PAYLOAD,2024-03-31 21:50:40,14.98339031,0.0002917,69.9988,268.9373,272.473,87.6095,-1.2629e-05,-2.44e-06,0.0,0 STARLINK-5925,1 55945U 23037AH  24091.91019310 -.00000244  00000-0 -12629-4 0  9999,2 55945  69.9988 268.9373 0002917 272.4730  87.6095 14.98339031 57964,6950.165,96.106,574.057,570.003,0.0
55945.0,STARLINK-5925,PAYLOAD,2024-04-01 12:15:53,14.98324709,0.0002921,69.9988,267.4223,272.4321,87.6503,-2.9635e-05,-4.47e-06,0.0,0 STARLINK-5925,1 55945U 23037AH  24092.51104109 -.00000447  00000-0 -29635-4 0  9997,2 55945  69.9988 267.4223 0002921 272.4321  87.6503 14.98324709 58391,6950.209,96.107,574.104,570.044,0.0
55945.0,STARLINK-5925,PAYLOAD,2024-04-01 13:52:02,14.98324828,0.0002923,69.9989,267.254,272.4197,87.6627,-2.8182e-05,-4.29e-06,0.0,0 STARLINK-5925,1 55945U 23037AH  24092.57780111 -.00000429  00000-0 -28182-4 0  9992,2 55945  69.9989 267.2540 0002923 272.4197  87.6627 14.98324828 58068,6950.209,96.107,574.105,570.042,0.0
55945.0,STARLINK-5925,PAYLOAD,2024-04-02 12:17:54,14.98336151,0.0002918,69.9991,264.897,272.7393,87.3432,-9.2265e-06,-2.03e-06,0.0,0 STARLINK-5925,1 55945U 23037AH  24093.51243424 -.00000203  00000-0 -92265-5 0  9992,2 55945  69.9991 264.8970 0002918 272.7393  87.3432 14.98336151 58542,6950.174,96.107,574.067,570.011,0.0
55945.0,STARLINK-5925,PAYLOAD,2024-04-02 13:54:02,14.9833546,0.000295,69.999,264.729,272.0345,88.0477,1.0979e-05,3.8e-07,0.0,0 STARLINK-5925,1 55945U 23037AH  24093.57919371  .00000038  00000-0  10979-4 0  9994,2 55945  69.9990 264.7290 0002950 272.0345  88.0477 14.98335460 58214,6950.176,96.107,574.091,569.991,0.0
55945.0,STARLINK-5925,PAYLOAD,2024-04-02 21:54:42,14.98336774,0.0002985,69.999,263.8871,273.1471,86.9347,1.4081e-05,7.5e-07,0.0,0 STARLINK-5925,1 55945U 23037AH  24093.91299173  .00000075  00000-0  14081-4 0  9992,2 55945  69.9990 263.8871 0002985 273.1471  86.9347 14.98336774 58266,6950.172,96.107,574.112,569.962,0.0
55945.0,STARLINK-5925,PAYLOAD,2024-04-03 04:19:14,14.98358068,0.0002815,69.9999,263.2132,276.623,83.4608,-0.00043454,-5.278e-05,0.0,0 STARLINK-5925,1 55945U 23037AH  24094.18002780 -.00005278  00000-0 -43454-3 0  9995,2 55945  69.9999 263.2132 0002815 276.6230  83.4608 14.98358068 58646,6950.106,96.105,573.928,570.015,0.0
55945.0,STARLINK-5925,PAYLOAD,2024-04-03 10:43:47,14.98327976,0.0003026,69.9989,262.5408,268.8204,91.2608,3.7588e-05,3.55e-06,0.0,0 STARLINK-5925,1 55945U 23037AH  24094.44707528  .00000355  00000-0  37588-4 0  9997,2 55945  69.9989 262.5408 0003026 268.8204  91.2608 14.98327976 58687,6950.199,96.107,574.167,569.961,0.0
55945.0,STARLINK-5925,PAYLOAD,2024-04-03 12:19:55,14.98327623,0.0003024,69.999,262.3724,268.8355,91.2458,3.2522e-05,2.95e-06,0.0,0 STARLINK-5925,1 55945U 23037AH  24094.51383566  .00000295  00000-0  32522-4 0  9993,2 55945  69.9990 262.3724 0003024 268.8355  91.2458 14.98327623 58359,6950.2,96.107,574.167,569.964,0.0
55945.0,STARLINK-5925,PAYLOAD,2024-04-03 21:56:43,14.98329207,0.0003025,69.999,261.3625,267.8405,92.2408,4.284e-05,4.18e-06,0.0,0 STARLINK-5925,1 55945U 23037AH  24094.91439445  .00000418  00000-0  42840-4 0  9996,2 55945  69.9990 261.3625 0003025 267.8405  92.2408 14.98329207 58417,6950.195,96.107,574.163,569.958,0.0
